IRS-P6(RESOURCESAT-1)
1 28051U 03046A   18094.37824866 -.00000056  00000-0 -40509-5 0  9991
2 28051  98.5572 172.3921 0056340 253.3809 106.1167 14.34143871750995
